STARLINK-35460          
1 66328U 25253K   25337.91670139 -.00076307  00000+0 -18372-2 0  9995
2 66328  43.0006  36.3840 0001623 265.0223  57.0753 15.40708749  5609
STARLINK-35505          
1 66329U 25253L   25337.53276708  .00120414  00000+0  20207-2 0  9995
2 66329  43.0000  38.5759 0002301 270.1873  89.8723 15.50665124  5508
STARLINK-35512          
1 66330U 25253M   25337.91670139 -.00203449  00000+0 -49878-2 0  9992
2 66330  43.0009  36.5672 0001112 245.0251   2.5131 15.40737673  5515
STARLINK-35257          
1 66331U 25253N   25337.52831291  .00111424  00000+0  18759-2 0  9991
2 66331  42.9995  38.5379 0001762 289.6299  70.4371 15.50612497  5507
STARLINK-35322          
1 66332U 25253P   25337.66255402 -.00395993  00000+0 -89578-2 0  9995
2 66332  42.9998  37.8272 0001814   5.7146 354.3732 15.43882577  5528
STARLINK-35400          
1 66333U 25253Q   25337.52865113  .00115116  00000+0  19355-2 0  9998
2 66333  43.0028  38.5379 0002479 261.0989  98.9590 15.50633816  5500
STARLINK-35407          
1 66334U 25253R   25338.18956366  .00124991  00000+0  29412-2 0  9999
2 66334  42.9992  34.9051 0000611 285.6311  74.4478 15.40796899  5608
STARLINK-35417          
1 66335U 25253S   25338.00002315 -.00078998  00000+0 -19018-2 0  9995
2 66335  43.0009  36.1763 0001523 254.3794  58.4875 15.40725454  5528
STARLINK-35404          
1 66336U 25253T   25337.52797206  .00104778  00000+0  17646-2 0  9991
2 66336  42.9975  38.5345 0000871 265.2110  94.8650 15.50633101  5500
STARLINK-34783          
1 66337U 25253U   25338.19852824  .00143610  00000+0  33658-2 0  9993
2 66337  42.9998  34.9717 0005949 289.8926  70.1289 15.40821530  5607
STARLINK-35477          
1 66338U 25253V   25337.23283142  .00094607  00000+0  22359-2 0  9996
2 66338  43.0004  40.6270 0000596 180.5282 179.5573 15.40809844  5458
STARLINK-35443          
1 66339U 25253W   25338.16670139 -.00028895  00000+0 -68737-3 0  9995
2 66339  43.0003  34.8825 0001367 265.4436  29.8145 15.40686767  5606
