CCSDS_OMM_VERS = 2.0
CREATION_DATE  = 
ORIGINATOR     = 

OBJECT_NAME    = STARLINK-35460
OBJECT_ID      = 2025-253K
CENTER_NAME    = EARTH
REF_FRAME      = TEME
TIME_SYSTEM    = UTC
MEAN_ELEMENT_THEORY = SGP/SGP4

EPOCH          = 2025-12-03T22:00:03.000096
MEAN_MOTION    = 15.40708749
ECCENTRICITY   = .00016231
INCLINATION    = 43.0006
RA_OF_ASC_NODE = 36.3840
ARG_OF_PERICENTER = 265.0223
MEAN_ANOMALY   = 57.0753

EPHEMERIS_TYPE = 0
CLASSIFICATION_TYPE = U
NORAD_CAT_ID   = 66328
ELEMENT_SET_NO = 999
REV_AT_EPOCH   = 560
BSTAR          = -.18371789E-2
MEAN_MOTION_DOT = -.76307E-3
MEAN_MOTION_DDOT = 0

CCSDS_OMM_VERS = 2.0
CREATION_DATE  = 
ORIGINATOR     = 

OBJECT_NAME    = STARLINK-35505
OBJECT_ID      = 2025-253L
CENTER_NAME    = EARTH
REF_FRAME      = TEME
TIME_SYSTEM    = UTC
MEAN_ELEMENT_THEORY = SGP/SGP4

EPOCH          = 2025-12-03T12:47:11.075712
MEAN_MOTION    = 15.50665124
ECCENTRICITY   = .00023019
INCLINATION    = 43.0000
RA_OF_ASC_NODE = 38.5759
ARG_OF_PERICENTER = 270.1873
MEAN_ANOMALY   = 89.8723

EPHEMERIS_TYPE = 0
CLASSIFICATION_TYPE = U
NORAD_CAT_ID   = 66329
ELEMENT_SET_NO = 999
REV_AT_EPOCH   = 550
BSTAR          = .20206657E-2
MEAN_MOTION_DOT = .120414E-2
MEAN_MOTION_DDOT = 0

CCSDS_OMM_VERS = 2.0
CREATION_DATE  = 
ORIGINATOR     = 

OBJECT_NAME    = STARLINK-35512
OBJECT_ID      = 2025-253M
CENTER_NAME    = EARTH
REF_FRAME      = TEME
TIME_SYSTEM    = UTC
MEAN_ELEMENT_THEORY = SGP/SGP4

EPOCH          = 2025-12-03T22:00:03.000096
MEAN_MOTION    = 15.40737673
ECCENTRICITY   = .00011126
INCLINATION    = 43.0009
RA_OF_ASC_NODE = 36.5672
ARG_OF_PERICENTER = 245.0251
MEAN_ANOMALY   = 2.5131

EPHEMERIS_TYPE = 0
CLASSIFICATION_TYPE = U
NORAD_CAT_ID   = 66330
ELEMENT_SET_NO = 999
REV_AT_EPOCH   = 551
BSTAR          = -.49878066E-2
MEAN_MOTION_DOT = -.203449E-2
MEAN_MOTION_DDOT = 0

CCSDS_OMM_VERS = 2.0
CREATION_DATE  = 
ORIGINATOR     = 

OBJECT_NAME    = STARLINK-35257
OBJECT_ID      = 2025-253N
CENTER_NAME    = EARTH
REF_FRAME      = TEME
TIME_SYSTEM    = UTC
MEAN_ELEMENT_THEORY = SGP/SGP4

EPOCH          = 2025-12-03T12:40:46.235424
MEAN_MOTION    = 15.50612497
ECCENTRICITY   = .00017622
INCLINATION    = 42.9995
RA_OF_ASC_NODE = 38.5379
ARG_OF_PERICENTER = 289.6299
MEAN_ANOMALY   = 70.4371

EPHEMERIS_TYPE = 0
CLASSIFICATION_TYPE = U
NORAD_CAT_ID   = 66331
ELEMENT_SET_NO = 999
REV_AT_EPOCH   = 550
BSTAR          = .18759457E-2
MEAN_MOTION_DOT = .111424E-2
MEAN_MOTION_DDOT = 0

CCSDS_OMM_VERS = 2.0
CREATION_DATE  = 
ORIGINATOR     = 

OBJECT_NAME    = STARLINK-35322
OBJECT_ID      = 2025-253P
CENTER_NAME    = EARTH
REF_FRAME      = TEME
TIME_SYSTEM    = UTC
MEAN_ELEMENT_THEORY = SGP/SGP4

EPOCH          = 2025-12-03T15:54:04.667328
MEAN_MOTION    = 15.43882577
ECCENTRICITY   = .0001814
INCLINATION    = 42.9998
RA_OF_ASC_NODE = 37.8272
ARG_OF_PERICENTER = 5.7146
MEAN_ANOMALY   = 354.3732

EPHEMERIS_TYPE = 0
CLASSIFICATION_TYPE = U
NORAD_CAT_ID   = 66332
ELEMENT_SET_NO = 999
REV_AT_EPOCH   = 552
BSTAR          = -.89578E-2
MEAN_MOTION_DOT = -.395993E-2
MEAN_MOTION_DDOT = 0

CCSDS_OMM_VERS = 2.0
CREATION_DATE  = 
ORIGINATOR     = 

OBJECT_NAME    = STARLINK-35400
OBJECT_ID      = 2025-253Q
CENTER_NAME    = EARTH
REF_FRAME      = TEME
TIME_SYSTEM    = UTC
MEAN_ELEMENT_THEORY = SGP/SGP4

EPOCH          = 2025-12-03T12:41:15.457632
MEAN_MOTION    = 15.50633816
ECCENTRICITY   = .0002479
INCLINATION    = 43.0028
RA_OF_ASC_NODE = 38.5379
ARG_OF_PERICENTER = 261.0989
MEAN_ANOMALY   = 98.9590

EPHEMERIS_TYPE = 0
CLASSIFICATION_TYPE = U
NORAD_CAT_ID   = 66333
ELEMENT_SET_NO = 999
REV_AT_EPOCH   = 550
BSTAR          = .19355E-2
MEAN_MOTION_DOT = .115116E-2
MEAN_MOTION_DDOT = 0

CCSDS_OMM_VERS = 2.0
CREATION_DATE  = 
ORIGINATOR     = 

OBJECT_NAME    = STARLINK-35407
OBJECT_ID      = 2025-253R
CENTER_NAME    = EARTH
REF_FRAME      = TEME
TIME_SYSTEM    = UTC
MEAN_ELEMENT_THEORY = SGP/SGP4

EPOCH          = 2025-12-04T04:32:58.300224
MEAN_MOTION    = 15.40796899
ECCENTRICITY   = .0000611
INCLINATION    = 42.9992
RA_OF_ASC_NODE = 34.9051
ARG_OF_PERICENTER = 285.6311
MEAN_ANOMALY   = 74.4478

EPHEMERIS_TYPE = 0
CLASSIFICATION_TYPE = U
NORAD_CAT_ID   = 66334
ELEMENT_SET_NO = 999
REV_AT_EPOCH   = 560
BSTAR          = .29412E-2
MEAN_MOTION_DOT = .124991E-2
MEAN_MOTION_DDOT = 0

CCSDS_OMM_VERS = 2.0
CREATION_DATE  = 
ORIGINATOR     = 

OBJECT_NAME    = STARLINK-35417
OBJECT_ID      = 2025-253S
CENTER_NAME    = EARTH
REF_FRAME      = TEME
TIME_SYSTEM    = UTC
MEAN_ELEMENT_THEORY = SGP/SGP4

EPOCH          = 2025-12-04T00:00:02.000160
MEAN_MOTION    = 15.40725454
ECCENTRICITY   = .0001523
INCLINATION    = 43.0009
RA_OF_ASC_NODE = 36.1763
ARG_OF_PERICENTER = 254.3794
MEAN_ANOMALY   = 58.4875

EPHEMERIS_TYPE = 0
CLASSIFICATION_TYPE = U
NORAD_CAT_ID   = 66335
ELEMENT_SET_NO = 999
REV_AT_EPOCH   = 552
BSTAR          = -.19018E-2
MEAN_MOTION_DOT = -.78998E-3
MEAN_MOTION_DDOT = 0

CCSDS_OMM_VERS = 2.0
CREATION_DATE  = 
ORIGINATOR     = 

OBJECT_NAME    = STARLINK-35404
OBJECT_ID      = 2025-253T
CENTER_NAME    = EARTH
REF_FRAME      = TEME
TIME_SYSTEM    = UTC
MEAN_ELEMENT_THEORY = SGP/SGP4

EPOCH          = 2025-12-03T12:40:16.785984
MEAN_MOTION    = 15.50633101
ECCENTRICITY   = .0000871
INCLINATION    = 42.9975
RA_OF_ASC_NODE = 38.5345
ARG_OF_PERICENTER = 265.2110
MEAN_ANOMALY   = 94.8650

EPHEMERIS_TYPE = 0
CLASSIFICATION_TYPE = U
NORAD_CAT_ID   = 66336
ELEMENT_SET_NO = 999
REV_AT_EPOCH   = 550
BSTAR          = .17646328E-2
MEAN_MOTION_DOT = .104778E-2
MEAN_MOTION_DDOT = 0

CCSDS_OMM_VERS = 2.0
CREATION_DATE  = 
ORIGINATOR     = 

OBJECT_NAME    = STARLINK-34783
OBJECT_ID      = 2025-253U
CENTER_NAME    = EARTH
REF_FRAME      = TEME
TIME_SYSTEM    = UTC
MEAN_ELEMENT_THEORY = SGP/SGP4

EPOCH          = 2025-12-04T04:45:52.839936
MEAN_MOTION    = 15.40821530
ECCENTRICITY   = .0005949
INCLINATION    = 42.9998
RA_OF_ASC_NODE = 34.9717
ARG_OF_PERICENTER = 289.8926
MEAN_ANOMALY   = 70.1289

EPHEMERIS_TYPE = 0
CLASSIFICATION_TYPE = U
NORAD_CAT_ID   = 66337
ELEMENT_SET_NO = 999
REV_AT_EPOCH   = 560
BSTAR          = .33658E-2
MEAN_MOTION_DOT = .14361E-2
MEAN_MOTION_DDOT = 0

CCSDS_OMM_VERS = 2.0
CREATION_DATE  = 
ORIGINATOR     = 

OBJECT_NAME    = STARLINK-35477
OBJECT_ID      = 2025-253V
CENTER_NAME    = EARTH
REF_FRAME      = TEME
TIME_SYSTEM    = UTC
MEAN_ELEMENT_THEORY = SGP/SGP4

EPOCH          = 2025-12-03T05:35:16.634688
MEAN_MOTION    = 15.40809844
ECCENTRICITY   = .0000596
INCLINATION    = 43.0004
RA_OF_ASC_NODE = 40.6270
ARG_OF_PERICENTER = 180.5282
MEAN_ANOMALY   = 179.5573

EPHEMERIS_TYPE = 0
CLASSIFICATION_TYPE = U
NORAD_CAT_ID   = 66338
ELEMENT_SET_NO = 999
REV_AT_EPOCH   = 545
BSTAR          = .22359E-2
MEAN_MOTION_DOT = .94607E-3
MEAN_MOTION_DDOT = 0

CCSDS_OMM_VERS = 2.0
CREATION_DATE  = 
ORIGINATOR     = 

OBJECT_NAME    = STARLINK-35443
OBJECT_ID      = 2025-253W
CENTER_NAME    = EARTH
REF_FRAME      = TEME
TIME_SYSTEM    = UTC
MEAN_ELEMENT_THEORY = SGP/SGP4

EPOCH          = 2025-12-04T04:00:03.000096
MEAN_MOTION    = 15.40686767
ECCENTRICITY   = .0001367
INCLINATION    = 43.0003
RA_OF_ASC_NODE = 34.8825
ARG_OF_PERICENTER = 265.4436
MEAN_ANOMALY   = 29.8145

EPHEMERIS_TYPE = 0
CLASSIFICATION_TYPE = U
NORAD_CAT_ID   = 66339
ELEMENT_SET_NO = 999
REV_AT_EPOCH   = 560
BSTAR          = -.68737E-3
MEAN_MOTION_DOT = -.28895E-3
MEAN_MOTION_DDOT = 0

